AEROCUBE 8D             
1 41852U 16067E   25086.18617461  .00020262  00000+0  10547-2 0  9995
2 41852  98.1138 278.7539 0003790 220.2132 139.8819 15.16060742458158
AEROCUBE 8C             
1 41853U 16067F   25086.06561506  .00021246  00000+0  11023-2 0  9994
2 41853  98.0973 276.5591 0006903 155.4942 204.6618 15.16151375458124
PROMETHEUS 2-1          
1 41854U 16067G   25086.11482227  .00081738  00000+0  19980-2 0  9995
2 41854  98.0877 291.1409 0007940 157.4635 202.6960 15.40478690458916
PROMETHEUS 2-3          
1 41855U 16067H   25086.05818250  .00082946  00000+0  20316-2 0  9995
2 41855  98.0820 290.3022 0006985 166.7339 193.4091 15.40419597458901
CORVUS BC2              
1 42846U 17042X   25085.72615592  .00008670  00000+0  66236-3 0  9991
2 42846  97.3671 261.9740 0013687 190.5005 169.5936 15.02106165419799
CORVUS BC1              
1 42847U 17042Y   25085.92261108  .00010719  00000+0  81265-3 0  9990
2 42847  97.3694 262.6308 0012895 170.0677 190.0805 15.02348449419844
MIRATA                  
1 43015U 17073C   25086.15143949  .00124624  00000+0  27781-2 0  9993
2 43015  97.5523 338.2279 0101045 356.3831   3.6670 15.37848181399324
MAKERSAT 0              
1 43016U 17073D   25085.60972662  .00034415  00000+0  14624-2 0  9995
2 43016  97.5327 324.6140 0156136  40.0175 321.2438 15.12506480398395
SIRION PATHFINDER-2     
1 43759U 18099B   25085.93673397  .00014619  00000+0  93137-3 0  9998
2 43759  97.4880 140.6696 0010911  50.4885 309.7306 15.08795538345056
CORVUS BC4              
1 43767U 18099K   25085.09967268  .00011340  00000+0  75211-3 0  9998
2 43767  97.4694 136.0157 0010679 103.0089 257.2332 15.07374976344784
MOVE-II                 
1 43780U 18099Y   25086.11581026  .00171573  00000+0  29209-2 0  9991
2 43780  97.4743 157.5839 0001543  94.9503 265.1925 15.50773500346173
SPACEBEE-7              
1 43816U 18099BL  25086.16139808  .00063362  00000+0  21220-2 0  9994
2 43816  97.5042 155.2597 0005899  28.8088 331.3477 15.30691355345390
SHIELDS 1               
1 43850U 18104B   25085.95415449  .00056623  00000+0  83061-3 0  9997
2 43850  85.0122  88.8886 0010869  83.1660 277.0836 15.55246161349830
SONATE                  
1 44400U 19038Q   25085.99934900  .00158352  00000+0  14481-2 0  9999
2 44400  97.7041 104.4540 0010406 151.5293 208.6537 15.67254659317807
DUCHIFAT-3              
1 44854U 19089C   25086.14757663  .00078873  00000+0  19888-2 0  9990
2 44854  36.9459 105.9352 0005339 271.5576  88.4567 15.38719628291449
M2 PATHFINDER           
1 45727U 20037E   25085.45411672  .00011130  00000+0  86555-3 0  9994
2 45727  97.8087 267.5790 0011925 233.0975 126.9156 15.01397869258238
NETSAT-4                
1 46504U 20068U   25085.88020953  .00034745  00000+0  12895-2 0  9999
2 46504  97.8400  59.6630 0010648 100.9845 259.2591 15.27451954247137
NETSAT-3                
1 46505U 20068V   25085.67436410  .00028996  00000+0  11177-2 0  9999
2 46505  97.8396  58.5556 0009980 109.5101 250.7215 15.26241948247075
NETSAT-1                
1 46506U 20068W   25085.44115637  .00022513  00000+0  98203-3 0  9995
2 46506  97.8420  56.6508 0009062 120.3522 239.8610 15.22138152246927
NETSAT-2                
1 46507U 20068X   25085.85301650  .00033142  00000+0  12420-2 0  9999
2 46507  97.8396  59.1663 0008306 119.7652 240.4412 15.27162636247070
WILDTRACKCUBE-SIMBA     
1 47941U 21022K   25086.18933327  .00060817  00000+0  15177-2 0  9993
2 47941  97.4309 349.2968 0009354 207.5034 152.5718 15.39930165221727
GRBALPHA                
1 47959U 21022AD  25086.19250740  .00207181  00000+0  22217-2 0  9994
2 47959  97.4258 355.5064 0007550 165.8651 194.2820 15.63110575220956
LEDSAT                  
1 49069U 21073D   25086.20197671  .00095221  00000+0  16770-2 0  9996
2 49069  97.3957 165.1987 0010282 348.4400  11.6613 15.50045664199871
ROBUSTA-1F (MTCUBE 2)   
1 53109U 22080E   25085.41852690 -.00000003  00000+0  00000+0 0  9997
2 53109  70.1190  93.9663 0008505  23.4617 336.6430  6.42584444 63291
SITRO-AIS 5 (KATYS)     
1 57176U 23091L   25086.17913877  .00024531  00000+0  12110-2 0  9996
2 57176  97.5681 143.0712 0014152 223.7685 136.2428 15.17790860 96283
SITRO-AIS 6 (CHIRKIN)   
1 57192U 23091AC  25086.16248196  .00025245  00000+0  12485-2 0  9996
2 57192  97.5684 143.0764 0014029 223.2039 136.8094 15.17724051 96286
SITRO-AIS 8 (ANOKHIN)   
1 57193U 23091AD  25086.19995917  .00026419  00000+0  12629-2 0  9994
2 57193  97.5677 143.4718 0013595 222.7071 137.3107 15.18903214 96315
SITRO-AIS 7 (FARTUSHNIY)
1 57194U 23091AE  25086.17975744  .00024623  00000+0  12206-2 0  9995
2 57194  97.5678 143.0428 0013933 224.0710 135.9414 15.17647405 96289
SITRO-AIS 10 (BURDAEV)  
1 57199U 23091AK  25086.20498988  .00031353  00000+0  13748-2 0  9994
2 57199  97.5690 145.4242 0009823 204.8222 155.2542 15.21878228 96433
SITRO-AIS 9 (SHCHUKIN)  
1 57201U 23091AM  25086.14887935  .00030821  00000+0  13572-2 0  9999
2 57201  97.5686 145.3049 0009744 205.2268 154.8493 15.21738541 96425
SITRO-AIS 12 (SMIRENNIY)
1 57204U 23091AQ  25086.14088528  .00030320  00000+0  13274-2 0  9996
2 57204  97.5694 145.5460 0009833 199.3293 160.7572 15.21939756 96432
SITRO-AIS 11 (SHEFFER)  
1 57208U 23091AU  25086.16848169  .00030115  00000+0  13121-2 0  9990
2 57208  97.5693 145.6439 0009671 199.6055 160.4810 15.22107298 96443
VERONIKA                
1 58261U 23174F   25086.16310589  .00138258  00000+0  22516-2 0  9997
2 58261  97.4199 168.9224 0006203 297.1426  62.9193 15.52130836 77072
ROBUSTA-1E (ENSO)       
1 58470U 23185J   25086.14821683  .00082625  00000+0  16350-2 0  9996
2 58470  97.3815 159.3436 0006594 348.6216  11.4883 15.46775908 73494
SITRO-AIS 29            
1 59052U 24039B   25086.20220777  .00305749  00000+0  21742-2 0  9992
2 59052  97.4125  59.0922 0003207 189.1009 171.0197 15.72975320 60258
SITRO-AIS 30            
1 59053U 24039C   25086.17052962  .00259541  00000+0  20396-2 0  9990
2 59053  97.4130  58.8128 0002946 208.6253 151.4848 15.70721556 60227
SITRO-AIS 31            
1 59054U 24039D   25086.15038215  .00291664  00000+0  21459-2 0  9997
2 59054  97.4141  59.0121 0002670 201.0172 159.0982 15.72208096 60254
SITRO-AIS 33            
1 59055U 24039E   25086.18040549  .00291911  00000+0  21228-2 0  9993
2 59055  97.4127  59.1251 0002870 193.9505 166.1679 15.72484696 60259
SITRO-AIS 35            
1 59056U 24039F   25086.16255475  .00312480  00000+0  22201-2 0  9995
2 59056  97.4142  59.1553 0002462 188.8398 171.2823 15.72978263 60258
SITRO-AIS 32            
1 59057U 24039G   25086.17925162  .00274116  00000+0  20961-2 0  9998
2 59057  97.4145  58.9889 0002593 202.3767 157.7383 15.71336874 60242
SITRO-AIS 34            
1 59058U 24039H   25085.92790060  .00288922  00000+0  21146-2 0  9994
2 59058  97.4132  58.8573 0002740 193.0530 167.0663 15.72340855 60213
SITRO-AIS 36            
1 59059U 24039J   25086.16391659  .00273092  00000+0  20201-2 0  9996
2 59059  97.4125  59.1335 0002640 188.8625 171.2592 15.72133461 60257
SITRO-AIS 49            
1 59060U 24039K   25086.15348089  .00276306  00000+0  21268-2 0  9991
2 59060  97.4132  59.0074 0002736 199.7675 160.3482 15.71172170 60243
SITRO-AIS 50            
1 59061U 24039L   25085.95127601  .00314374  00000+0  21453-2 0  9998
2 59061  97.4110  59.1081 0003129 182.0660 178.0592 15.73921557 60235
SITRO-AIS 51            
1 59062U 24039M   25086.18534791  .00317942  00000+0  21125-2 0  9997
2 59062  97.4114  59.4072 0003323 181.1332 178.9925 15.74535395 60270
SITRO-AIS 52            
1 59063U 24039N   25085.90528475  .00320178  00000+0  21230-2 0  9991
2 59063  97.4132  59.1884 0002630 180.8145 179.3116 15.74578173 60231
SITRO-AIS 25            
1 59066U 24039R   25086.18755982  .00012251  00000+0  10452-2 0  9994
2 59066  95.3788 289.4237 0159944  85.4944 276.4530 14.88307486 58121
SITRO-AIS 26            
1 59067U 24039S   25086.20612937  .00012257  00000+0  10496-2 0  9994
2 59067  95.3787 289.4069 0160031  85.5961 276.3526 14.88160743 58120
SITRO-AIS 27            
1 59068U 24039T   25086.14989428  .00012653  00000+0  10766-2 0  9990
2 59068  95.3786 289.4666 0159290  85.2790 276.6603 14.88473153 58126
SITRO-AIS 28            
1 59071U 24039U   25086.20621292  .00012260  00000+0  10425-2 0  9999
2 59071  95.3789 289.5270 0159166  85.0219 276.9152 14.88515546 58137
GRBBETA                 
1 60237U 24128C   25085.71934777  .00011463  00000+0  87324-3 0  9991
2 60237  61.9943 340.4073 0044810  41.3907 319.0564 15.01679708 38951
OOV-CUBE (TUBSAT-30)    
1 60240U 24128F   25085.13455114  .00007928  00000+0  64348-3 0  9996
2 60240  61.9985 344.3014 0043831  37.4440 322.9689 14.99627387 38840
ROBUSTA-3A (MEDITERRAN*)
1 60243U 24128J   25085.11494708  .00020923  00000+0  15224-2 0  9997
2 60243  61.9911 342.3813 0042956  34.4130 325.9729 15.03107224 38877
LASARSAT                
1 62391U 24247Q   25085.35575605  .00038365  00000+0  16171-2 0  9998
2 62391  44.9929 208.8009 0007115 305.8674  54.1546 15.22739564 14581
CROCUBE                 
1 62394U 24247T   25085.75043577  .00036392  00000+0  15302-2 0  9996
2 62394  44.9924 206.6710 0007707 308.9324  51.0870 15.22840724 14641
